{"fetched_at":"2026-03-30T13:17:50Z","count":15418,"tles":[{"name":"STARLINK-34220","line1":"1 64930U 25157AC  26087.87347776  .00034451  00000+0  11696-2 0  9995","line2":"2 64930  53.1574 256.3543 0000883  82.3287 277.7814 15.30208837 38954","category":"Starlink"}]}